{
    "links": {
        "self": "http://www.neowsapp.com/rest/v1/neo/3826669?api_key=iIulBulltgU6a56xZRHN4H3l9WmuAYTsLGpBGhQ2"
    },
    "id": "3826669",
    "neo_reference_id": "3826669",
    "name": "(2018 PK9)",
    "designation": "2018 PK9",
    "nasa_jpl_url": "http://ssd.jpl.nasa.gov/sbdb.cgi?sstr=3826669",
    "absolute_magnitude_h": 25.3,
    "estimated_diameter": {
        "kilometers": {
            "estimated_diameter_min": 0.0231502122,
            "estimated_diameter_max": 0.0517654482
        },
        "meters": {
            "estimated_diameter_min": 23.150212221,
            "estimated_diameter_max": 51.7654482198
        },
        "miles": {
            "estimated_diameter_min": 0.0143848705,
            "estimated_diameter_max": 0.0321655483
        },
        "feet": {
            "estimated_diameter_min": 75.9521422633,
            "estimated_diameter_max": 169.8341531374
        }
    },
    "is_potentially_hazardous_asteroid": false,
    "close_approach_data": [
        {
            "close_approach_date": "2018-06-15",
            "close_approach_date_full": "2018-Jun-15 17:22",
            "epoch_date_close_approach": 1529083320000,
            "relative_velocity": {
                "kilometers_per_second": "8.6041277176",
                "kilometers_per_hour": "30974.859783225",
                "miles_per_hour": "19246.5732914156"
            },
            "miss_distance": {
                "astronomical": "0.0772615029",
                "lunar": "30.0547246281",
                "kilometers": "11558156.266838823",
                "miles": "7181905.2748408374"
            },
            "orbiting_body": "Mars"
        },
        {
            "close_approach_date": "2018-08-22",
            "close_approach_date_full": "2018-Aug-22 16:34",
            "epoch_date_close_approach": 1534955640000,
            "relative_velocity": {
                "kilometers_per_second": "8.9742962854",
                "kilometers_per_hour": "32307.4666275004",
                "miles_per_hour": "20074.6033608488"
            },
            "miss_distance": {
                "astronomical": "0.0436471503",
                "lunar": "16.9787414667",
                "kilometers": "6529520.716449861",
                "miles": "4057256.0357396418"
            },
            "orbiting_body": "Earth"
        },
        {
            "close_approach_date": "2099-07-31",
            "close_approach_date_full": "2099-Jul-31 10:42",
            "epoch_date_close_approach": 4089177720000,
            "relative_velocity": {
                "kilometers_per_second": "16.8198414606",
                "kilometers_per_hour": "60551.429258084",
                "miles_per_hour": "37624.3033631689"
            },
            "miss_distance": {
                "astronomical": "0.2966566263",
                "lunar": "115.3994276307",
                "kilometers": "44379199.415865981",
                "miles": "27575955.8029572978"
            },
            "orbiting_body": "Earth"
        }
    ],
    "orbital_data": {
        "orbit_id": "2",
        "orbit_determination_date": "2018-08-17 07:06:10",
        "first_observation_date": "2018-08-07",
        "last_observation_date": "2018-08-12",
        "data_arc_in_days": 5,
        "observations_used": 14,
        "orbit_uncertainty": "8",
        "minimum_orbit_intersection": ".0103042",
        "jupiter_tisserand_invariant": "3.853",
        "epoch_osculation": "2458338.5",
        "eccentricity": ".4732790154132909",
        "semi_major_axis": "1.857843242571712",
        "inclination": "2.487006697835207",
        "ascending_node_longitude": "326.1684238540468",
        "orbital_period": "924.9367334744461",
        "perihelion_distance": ".9785650219351363",
        "perihelion_argument": "39.3202089480678",
        "aphelion_distance": "2.737121463208287",
        "perihelion_time": "2458381.954880749716",
        "mean_anomaly": "343.0866733866939",
        "mean_motion": ".3892158100886432",
        "equinox": "J2000",
        "orbit_class": {
            "orbit_class_type": "APO",
            "orbit_class_description": "Near-Earth asteroid orbits which cross the Earth’s orbit similar to that of 1862 Apollo",
            "orbit_class_range": "a (semi-major axis) > 1.0 AU; q (perihelion) < 1.017 AU"
        }
    },
    "is_sentry_object": false
}